IRIDIUM 124             
1 42810U 17039H   24303.98578501  .00001678  00000+0  49258-3 0  9992
2 42810  86.4551 179.1549 0002361  72.3944 287.7515 14.43293067389265
IRIDIUM 128             
1 42811U 17039J   24304.15344786  .00001216  00000+0  42685-3 0  9994
2 42811  86.3921 273.7846 0002526  87.6093 272.5391 14.34223965384690
IRIDIUM 121             
1 42812U 17039K   24304.18174150  .00001463  00000+0  51536-3 0  9993
2 42812  86.3973 242.2613 0002120  82.0010 278.1427 14.34220413384663
IRIDIUM 133             
1 42955U 17061A   24303.62701891  .00000608  00000+0  21000-3 0  9995
2 42955  86.3920 274.1082 0002199  86.9661 273.1786 14.34220327369411
IRIDIUM 100             
1 42956U 17061B   24303.62067739  .00001200  00000+0  42133-3 0  9991
2 42956  86.3921 274.0436 0002458  85.5362 274.6115 14.34220830369417
IRIDIUM 122             
1 42957U 17061C   24304.21687672  .00000981  00000+0  34329-3 0  9995
2 42957  86.3922 273.7926 0002381  90.0236 270.1232 14.34222973369506
IRIDIUM 129             
1 42958U 17061D   24303.82363406  .00001407  00000+0  49506-3 0  9995
2 42958  86.3919 274.0178 0002020  92.4021 267.7406 14.34224816369462
IRIDIUM 119             
1 42959U 17061E   24304.21053972  .00000381  00000+0  12912-3 0  9995
2 42959  86.3926 273.8483 0002581  92.5504 267.5987 14.34218923369538
IRIDIUM 107             
1 42960U 17061F   24303.81093294  .00001128  00000+0  39575-3 0  9997
2 42960  86.3922 274.0334 0002560  88.1342 272.0147 14.34215219369480
IRIDIUM 132             
1 42961U 17061G   24303.88706686  .00000381  00000+0  12907-3 0  9991
2 42961  86.3919 273.9859 0002592  85.9629 274.1863 14.34219698369499
IRIDIUM 136             
1 42962U 17061H   24303.84899826  .00000442  00000+0  15060-3 0  9998
2 42962  86.3918 274.0048 0002239  91.2107 268.9345 14.34219699369509
IRIDIUM 139             
1 42963U 17061J   24304.20419678  .00000092  00000+0  25742-4 0  9993
2 42963  86.3929 273.9090 0002609  89.9852 270.1643 14.34216131369569
IRIDIUM 125             
1 42964U 17061K   24303.63336245  .00000513  00000+0  17616-3 0  9996
2 42964  86.3924 274.1981 0002522  97.6572 262.4911 14.34219223369495
IRIDIUM 135             
1 43070U 17083A   24304.02609887  .00000984  00000+0  34430-3 0  9993
2 43070  86.4023 210.7143 0001886  70.9231 289.2169 14.34220032358848
IRIDIUM 138             
1 43071U 17083B   24303.98167454  .00001275  00000+0  44821-3 0  9996
2 43071  86.4013 210.4338 0001958  99.0382 261.1035 14.34224364358821
IRIDIUM 116             
1 43072U 17083C   24304.08952023  .00001386  00000+0  48762-3 0  9994
2 43072  86.4023 210.6814 0002161  78.5702 281.5737 14.34223661358878
IRIDIUM 130             
1 43073U 17083D   24303.98803119  .00001304  00000+0  45849-3 0  9997
2 43073  86.4030 210.9409 0002410  82.7124 277.4346 14.34228042358803
